{"type":"FeatureCollection","features":[{"type":"Feature","id":"S02-310590001","properties":{"record_id":"S02-310590001","source_id":"S02","source_hash":"ceb1c24331a3e68e35524219fb966e456709875fa160f6558416d4e22a63debb","theme":"localities","status":"DERIVADO","origin":"OFICIAL","name":"Progreso","date":"Marco 2025 · Censo 2020","cvegeo":"310590001","population_2020":"41965","clipped":false,"simplification_m":1,"relations":{"coast":11,"mangrove":3,"wetlands":4,"water":6}},"geometry":{"type":"Polygon","coordinates":[[[-89.674888741,21.34833561199999],[-89.673722806,21.346747322],[-89.673597884,21.346699731999998],[-89.673359938,21.346669988999995],[-89.671771648,21.346687834999994],[-89.671676469,21.346640246],[-89.670861504,21.345843127],[-89.670730633,21.345676564],[-89.67070089,21.345510002],[-89.670546225,21.343612382000003],[-89.670373714,21.342178756999996],[-89.670028692,21.338889151999993],[-89.66955518,21.334933298],[-89.669431448,21.333705496],[-89.669079287,21.330697857],[-89.668893689,21.328884708000004],[-89.668484422,21.325667676999995],[-89.66842374600002,21.324850331999997],[-89.667652801,21.318432925],[-89.667624247,21.318136683],[-89.667624247,21.317722656],[-89.667545725,21.316965988000007],[-89.666802143,21.310291005000003],[-89.666156595,21.305151131],[-89.666173728,21.305012171],[-89.666221317,21.304964580999997],[-89.66627271300001,21.304829428],[-89.666208944,21.304140336],[-89.66609473,21.303268026],[-89.666251774,21.303195214],[-89.666274617,21.303146672999997],[-89.666227503,21.302569891999998],[-89.665842031,21.299229127999993],[-89.664717233,21.288984739],[-89.664652776,21.288733326],[-89.664036972,21.288670508],[-89.663682432,21.288691923],[-89.662736001,21.288812085999993],[-89.659779521,21.288987570999996],[-89.658545176,21.28901434],[-89.657108576,21.289097621],[-89.655757482,21.289099910999997],[-89.655105833,21.289139990999995],[-89.654741499,21.289114951],[-89.65310612,21.289260629999998],[-89.65140268,21.28935066],[-89.65041089,21.289375289999995],[-89.649566798,21.289422413],[-89.648526455,21.289399955999997],[-89.647109309,21.289487707],[-89.645702827,21.289550138],[-89.64519888,21.28963277],[-89.643947016,21.289769230000005],[-89.642941874,21.28995529299999],[-89.642323159,21.289972682999995],[-89.641405364,21.290110446000003],[-89.640242805,21.290185587],[-89.63981958,21.290248739999996],[-89.63876331,21.290444910000005],[-89.63752614,21.290598149999997],[-89.63637691,21.290717909999998],[-89.635336051,21.290919819999996],[-89.63536528,21.29102429],[-89.633151129,21.291330881999997],[-89.63179071400002,21.29160969899999],[-89.631023768,21.291672868999992],[-89.629972464,21.292031095],[-89.629532705,21.292226805],[-89.629300159,21.292294715],[-89.628361006,21.292309417],[-89.62766420000001,21.292437339999996],[-89.62764751,21.29238569],[-89.62644522,21.292678579999997],[-89.62634835,21.292683511999996],[-89.625433421,21.290011221],[-89.625215297,21.289553739],[-89.624604751,21.287914347999997],[-89.624450145,21.287454522999997],[-89.62448445,21.287447231],[-89.62435775000002,21.287056675],[-89.635001178,21.284815756],[-89.63540185,21.284726013999993],[-89.635919131,21.284562682000004],[-89.636134976,21.284384911999993],[-89.636408426,21.284277531999994],[-89.637016408,21.283923126999998],[-89.637314904,21.283718368],[-89.637475064,21.283449992],[-89.63842470000002,21.282646274],[-89.640163121,21.281276085],[-89.641754435,21.279995182],[-89.64239819100001,21.279454485000002],[-89.642717077,21.278923631999998],[-89.643214903,21.278710902999997],[-89.643746379,21.278551501999996],[-89.643799872,21.278418722000005],[-89.644798206,21.278268192999995],[-89.6449264,21.27839575],[-89.64569394,21.278309459999992],[-89.64772976,21.278020617999996],[-89.648005929,21.278008550999996],[-89.648347613,21.277973089],[-89.64889754,21.277994019999998],[-89.64929155,21.277857030000003],[-89.65156677,21.276384969999995],[-89.65203874,21.27624198],[-89.65487942,21.27600648],[-89.6557978,21.275970849999997],[-89.65612812,21.275996749999997],[-89.65651368,21.27623197],[-89.65675891000001,21.27628937],[-89.65888983,21.27610225999999],[-89.660860498,21.275809761999998],[-89.661085399,21.275667932999994],[-89.661206559,21.275670015999996],[-89.661434548,21.275740497],[-89.661889338,21.275715569999996],[-89.662076185,21.275607292],[-89.662259472,21.275604757],[-89.662351379,21.275656525],[-89.662543355,21.275872536999994],[-89.662811507,21.275998314],[-89.662951057,21.276125142999998],[-89.663570664,21.276488495],[-89.664061705,21.276740242999995],[-89.664465014,21.276883687],[-89.664925965,21.276959495999996],[-89.665694491,21.276954978],[-89.66805292,21.276896801],[-89.67308364,21.276922516],[-89.673740819,21.276971649999997],[-89.674230709,21.276981350999996],[-89.67471809,21.276946910000003],[-89.67522775,21.277011579999996],[-89.677475343,21.277084341999995],[-89.68074128,21.277143549999998],[-89.684529079,21.277179352999998],[-89.684992798,21.277206811999996],[-89.68501978,21.277155393],[-89.685042846,21.276904229],[-89.685102048,21.276735503999994],[-89.68522593,21.276562357],[-89.685247524,21.276253934],[-89.685355619,21.276257784],[-89.685386746,21.275594615],[-89.685421306,21.275604632],[-89.685400668,21.276631592000005],[-89.685703637,21.276634711999993],[-89.68570667,21.276548267999996],[-89.686887782,21.276588711999995],[-89.6869433,21.275619002000003],[-89.68714491700001,21.275496552999996],[-89.68721047600002,21.275482562999997],[-89.687415928,21.275496569],[-89.687616001,21.275602025999998],[-89.687642269,21.27569010299999],[-89.687673616,21.275710809000003],[-89.687749774,21.275838073000003],[-89.687833461,21.276237342],[-89.687919392,21.2764327],[-89.687944241,21.276563462999995],[-89.687927749,21.276706593999993],[-89.687798026,21.276988193],[-89.687628405,21.277249517],[-89.690362176,21.276825979999998],[-89.690536286,21.27675623],[-89.692794025,21.276366111999998],[-89.692618765,21.273218579999998],[-89.692173849,21.272680139999995],[-89.692160152,21.272561849],[-89.692207579,21.272515819999995],[-89.692431569,21.271895520999994],[-89.692654549,21.271552460000002],[-89.69296668,21.271134431],[-89.693577879,21.269908781],[-89.694364829,21.269299243],[-89.69433102,21.269239598000002],[-89.694563815,21.269010329],[-89.695007967,21.268614678],[-89.695474535,21.268305473000005],[-89.695718087,21.268853747],[-89.695956562,21.268555717999995],[-89.69605559,21.268468273999993],[-89.696179249,21.268381371999997],[-89.696401347,21.268280715999992],[-89.69689638600002,21.268197723999997],[-89.697478599,21.268071609999993],[-89.700975947,21.267479702000003],[-89.70111058,21.267483322],[-89.70132231,21.267529299999996],[-89.701479132,21.267585310999998],[-89.70168111,21.267695564000004],[-89.701842178,21.267831439],[-89.70215878,21.268256221],[-89.703891939,21.267155320999997],[-89.704818369,21.266509649999996],[-89.705629867,21.265979575],[-89.70721463000001,21.265012939999995],[-89.70844602700001,21.264138221999996],[-89.712685201,21.267284537000002],[-89.712962863,21.267550872000005],[-89.713189938,21.267843254999995],[-89.713324602,21.268092055],[-89.71344641,21.268375963999997],[-89.713511245,21.268642964000005],[-89.71354484600002,21.269025813999992],[-89.713531218,21.26922077],[-89.713465348,21.269588973],[-89.713389105,21.269859951],[-89.713119781,21.27034431],[-89.711817647,21.271869311999996],[-89.711684323,21.272057572999998],[-89.71143416900001,21.272322793000004],[-89.71108641300002,21.272753791],[-89.71140448,21.274592643],[-89.711797128,21.276340115999993],[-89.71191141,21.276912564],[-89.711416614,21.277019695999996],[-89.710031166,21.277273372999996],[-89.709317636,21.277372551999992],[-89.708223972,21.277585235],[-89.708302409,21.278804818999998],[-89.707503935,21.278973817999997],[-89.707481777,21.279257587],[-89.70738963,21.279318406],[-89.707378862,21.279211509999996],[-89.707034681,21.279207889000002],[-89.706380574,21.279275697000003],[-89.705575212,21.279422888],[-89.704877916,21.279569140999996],[-89.704315683,21.279644340000004],[-89.703897089,21.279779301999998],[-89.70362337,21.279908291],[-89.70376175,21.280694569999998],[-89.70378114,21.280949691],[-89.70275871,21.282822719999995],[-89.702701296,21.282846789999997],[-89.703113581,21.284526154000005],[-89.703098709,21.284603485999995],[-89.70307194,21.284645126],[-89.702976761,21.284651075000003],[-89.70290835100002,21.284624306999998],[-89.702875635,21.284546973999998],[-89.702723944,21.283711188999998],[-89.702613244,21.282883701],[-89.70256637,21.282903351000005],[-89.70174394,21.28264838],[-89.700435549,21.28252278],[-89.70023376600001,21.282526015],[-89.69997864,21.282955709999996],[-89.699859668,21.283256116],[-89.699883461,21.283482165999995],[-89.699948897,21.283589241000005],[-89.701204062,21.283972929999997],[-89.701989284,21.28422872],[-89.702093386,21.284279284999997],[-89.70211718,21.284320926000003],[-89.70208446300002,21.284338771999998],[-89.70095422,21.28400981],[-89.699858656,21.283662469000003],[-89.699486865,21.283466163],[-89.699424405,21.283837954999996],[-89.699394662,21.283852825],[-89.699341123,21.283820108999993],[-89.699281636,21.283701135999998],[-89.699287586,21.283611905000004],[-89.699305431,21.283409650999996],[-89.699433327,21.282948631000004],[-89.699482959,21.282613721],[-89.69916346000001,21.282489000999995],[-89.698574769,21.28236428],[-89.69747482,21.28232646],[-89.69646323,21.28231558],[-89.696009479,21.282259650999997],[-89.695980456,21.281740701000004],[-89.69554514,21.281732131],[-89.693924132,21.281761874],[-89.69051258,21.282050384],[-89.689224697,21.28222884299999],[-89.687291385,21.282431096999996],[-89.686872005,21.282502481000005],[-89.684727515,21.282776119000005],[-89.683629989,21.282939707],[-89.683335531,21.282996218999994],[-89.683044047,21.283073552],[-89.681259451,21.283412624999993],[-89.680170847,21.283793338999995],[-89.679489727,21.284049130999993],[-89.678511173,21.284334666],[-89.676331587,21.285012812999998],[-89.675441669,21.285269794],[-89.673571412,21.28573141],[-89.672336472,21.285938423],[-89.671703536,21.286062155],[-89.670463836,21.286366725999997],[-89.670104538,21.286440488999997],[-89.669707168,21.286480940000004],[-89.66952632900002,21.286521391],[-89.669019503,21.286659399999998],[-89.668510299,21.286825962],[-89.667259892,21.287295311000005],[-89.666769128,21.287506487999995],[-89.666465747,21.28774146],[-89.665839711,21.288076964000002],[-89.66595589800002,21.289291191],[-89.666021571,21.289879393000003],[-89.66605298,21.289975047999995],[-89.666111515,21.290517564999995],[-89.665993017,21.290534696999995],[-89.66593591,21.289987896999996],[-89.665909141,21.289521997999998],[-89.665755547,21.288086825999997],[-89.66495236000002,21.288552301],[-89.66506111,21.289550829999996],[-89.665138553,21.289806344],[-89.665394345,21.290499361999995],[-89.665465729,21.290758128],[-89.66556388200001,21.29130243],[-89.666158747,21.296751396],[-89.666307463,21.297935178],[-89.666438334,21.299297419000006],[-89.666491871,21.299600799999993],[-89.666545409,21.300046948999995],[-89.666706023,21.301629291],[-89.666885424,21.303169397],[-89.667126345,21.304894506],[-89.667179883,21.304894505999997],[-89.667272087,21.304927224],[-89.667313727,21.305049171],[-89.667107309,21.306856372000002],[-89.667107309,21.307013416],[-89.667214385,21.308012789999996],[-89.667321461,21.308822996000004],[-89.667321461,21.309629634],[-89.66727863,21.31048624],[-89.667328599,21.31108229499999],[-89.667774748,21.31516188],[-89.667850452,21.315501952],[-89.667911691,21.31550305],[-89.66927023,21.327936310000002],[-89.669780861,21.328465459999993],[-89.669900379,21.329450780000002],[-89.66979929,21.33005478],[-89.669644063,21.330222621999997],[-89.670498041,21.331420736999995],[-89.670536707,21.331518889999998],[-89.670628911,21.331875809],[-89.670735987,21.332342779],[-89.670774653,21.33264616],[-89.670780602,21.332925747],[-89.670712193,21.333330255],[-89.67050399000001,21.334008401],[-89.670188711,21.334573523],[-89.67008804000001,21.33482169],[-89.670518466,21.338373267000005],[-89.673445598,21.338309276999997],[-89.673487239,21.338344968999998],[-89.673525905,21.3385383],[-89.67351698200001,21.338600760999995],[-89.6735497,21.338657272999992],[-89.673650827,21.338692964999996],[-89.674379537,21.338660247999996],[-89.674662098,21.338687016999994],[-89.674882198,21.338761375],[-89.674977376,21.338847629999997],[-89.675024966,21.339156960000004],[-89.675001171,21.339272959],[-89.674974402,21.339326497000002],[-89.674900044,21.339359213999995],[-89.674724559,21.339380035000005],[-89.672996475,21.339439521],[-89.672425404,21.339433572000004],[-89.67176233600001,21.339447740000004],[-89.67176855,21.340098689999994],[-89.673014111,21.34009402999999],[-89.67303889000002,21.341472831000004],[-89.67421052,21.341463350999998],[-89.674210021,21.341417800000006],[-89.675373741,21.341401460999997],[-89.67537357,21.34148589],[-89.67565811,21.341483769999993],[-89.675656421,21.341404919999995],[-89.675755221,21.341404261],[-89.675762579,21.341487461],[-89.67603822,21.34147991],[-89.676038461,21.3414488],[-89.67623351,21.34144614],[-89.67623178,21.34152488],[-89.676106956,21.341526847],[-89.67610547900001,21.341656703],[-89.675623043,21.341711786999998],[-89.674072229,21.341724874000004],[-89.674069255,21.341671336999998],[-89.672941985,21.341683233999998],[-89.67260886100001,21.341730823],[-89.67262351600002,21.341925375999995],[-89.671897013,21.341936050999994],[-89.67189585,21.3420136],[-89.671820524,21.342042134999996],[-89.671807286,21.342141316999996],[-89.670956651,21.342248749999996],[-89.671215911,21.344826355],[-89.671258517,21.344943095],[-89.673143764,21.344938811999995],[-89.673290339,21.345134879999996],[-89.673456119,21.345295833999998],[-89.67369357,21.34529271],[-89.67462237,21.34619066],[-89.67609009,21.34479912],[-89.67886858000001,21.344775620000004],[-89.678866623,21.344888139000002],[-89.681148033,21.344855531],[-89.681326747,21.345385715999996],[-89.681513291,21.345389511],[-89.68155922,21.34706782],[-89.681435993,21.34707041],[-89.68144118200001,21.347181454],[-89.681269861,21.347188593],[-89.681232098,21.34723046099999],[-89.681303319,21.34874515],[-89.681509855,21.348622049],[-89.681423616,21.348466808999998],[-89.681532521,21.348163516999993],[-89.681628047,21.348103746],[-89.681847465,21.348105882000002],[-89.681991208,21.347972783999996],[-89.682185137,21.348039598999996],[-89.682377854,21.347862692999996],[-89.682440556,21.347840565],[-89.68235489500002,21.347726350999995],[-89.683059216,21.347300426999997],[-89.683110731,21.347373833999995],[-89.683297129,21.347184058999996],[-89.683761196,21.346934714],[-89.68399137,21.347193471],[-89.684162691,21.347311253999997],[-89.684191244,21.347482574999997],[-89.684109153,21.347607497],[-89.683909278,21.347693157000002],[-89.68379149500001,21.347664604],[-89.683626122,21.347716951999992],[-89.682878972,21.348154773],[-89.682612472,21.348349888999994],[-89.682407838,21.348521209999998],[-89.681632134,21.348954272],[-89.681108653,21.349192218],[-89.681018233,21.349220771],[-89.680628001,21.349116075],[-89.680356743,21.349068486],[-89.679395441,21.348944754],[-89.6768399,21.348663977999998],[-89.675716794,21.348554522],[-89.675240902,21.348483138999995],[-89.674888741,21.34833561199999]]]}},{"type":"Feature","id":"S02-310590003","properties":{"record_id":"S02-310590003","source_id":"S02","source_hash":"ceb1c24331a3e68e35524219fb966e456709875fa160f6558416d4e22a63debb","theme":"localities","status":"DERIVADO","origin":"OFICIAL","name":"Chelem","date":"Marco 2025 · Censo 2020","cvegeo":"310590003","population_2020":"4862","clipped":false,"simplification_m":1,"relations":{"coast":52,"mangrove":4,"wetlands":7,"water":1}},"geometry":{"type":"Polygon","coordinates":[[[-89.708223972,21.277585235],[-89.709317636,21.277372551999992],[-89.710031166,21.277273372999996],[-89.711416614,21.277019695999996],[-89.71191141,21.276912564],[-89.711797128,21.276340115999993],[-89.71140448,21.274592643],[-89.71108641300002,21.272753791],[-89.71143416900001,21.272322793000004],[-89.711684323,21.272057572999998],[-89.711742177,21.272089410999993],[-89.711991145,21.272357429999992],[-89.71308234500002,21.272217197999996],[-89.71418712,21.271871515000004],[-89.718992911,21.270875],[-89.719229978,21.271147097],[-89.71971065200002,21.27177241],[-89.720667365,21.271599974999997],[-89.721856833,21.271315959],[-89.723885099,21.270724340000005],[-89.7254171,21.270134132],[-89.727571548,21.269527784],[-89.727777599,21.269546677999998],[-89.728571974,21.269462348999998],[-89.728950296,21.269373486999996],[-89.729212517,21.269232349000003],[-89.730760095,21.268820378999997],[-89.730559114,21.268058224000004],[-89.73074231,21.268036805],[-89.731624176,21.267796843],[-89.731729718,21.267823398],[-89.732139702,21.267722694999993],[-89.73210437,21.26758254],[-89.73308717,21.26731334],[-89.73393168,21.26703303],[-89.73401274000001,21.26688525],[-89.73476326,21.266617169999996],[-89.73610082000002,21.26625024999999],[-89.73780109,21.265816920000002],[-89.73783762,21.26601158],[-89.73901642,21.265703781],[-89.73906145,21.265627859999995],[-89.739879835,21.265428288],[-89.74083078,21.265254109999997],[-89.74080202,21.265091719999997],[-89.74145329,21.264870539999997],[-89.74136277,21.264514120999998],[-89.74123312,21.264292151],[-89.74148439,21.264244129],[-89.741508925,21.264199065],[-89.741556034,21.264174374],[-89.741626069,21.264186143],[-89.741666715,21.264240885999996],[-89.741667403,21.264274882],[-89.74164286800001,21.264319945],[-89.74157284,21.264346274],[-89.741738905,21.265045652000005],[-89.741961885,21.265014565],[-89.74272711700002,21.264881136],[-89.744381531,21.264494983000002],[-89.74455691,21.264484541],[-89.744537839,21.264396500000004],[-89.74565943,21.264200794],[-89.745684739,21.264315573],[-89.746043425,21.264061871],[-89.746069882,21.263977514999993],[-89.746122501,21.263903205],[-89.746215385,21.263858519],[-89.74682973,21.263857150999996],[-89.74706540000001,21.263723788999997],[-89.747239197,21.263527029],[-89.747449387,21.263490148999995],[-89.747672788,21.263426074],[-89.747939107,21.263272012000005],[-89.748510851,21.263565623999998],[-89.749117898,21.263372972],[-89.74934494,21.263407600000004],[-89.75189218,21.26297852],[-89.75215794,21.263102849999996],[-89.75274398,21.263033259999997],[-89.760072444,21.261320688000005],[-89.760636344,21.261209767000004],[-89.761072433,21.261094475000004],[-89.761467641,21.261043251999993],[-89.761899619,21.260911768],[-89.762510577,21.260834699],[-89.76503041800001,21.260342158999997],[-89.765331954,21.260398151],[-89.765784822,21.260410148999995],[-89.766100476,21.260394152000003],[-89.766510838,21.260171096999994],[-89.767249071,21.259953307999993],[-89.76735098,21.260044662],[-89.77045818,21.259215173000005],[-89.7728532,21.258794142999996],[-89.77513866,21.258429222999997],[-89.776563318,21.258278893],[-89.776754026,21.260171912999997],[-89.776878941,21.260669860999997],[-89.777045433,21.261839805],[-89.777094146,21.262292494999997],[-89.777179663,21.262693916999996],[-89.777249629,21.263184259999996],[-89.77727608,21.263235491],[-89.77528638,21.263707122999996],[-89.77206891,21.264781122],[-89.77125211,21.265197973],[-89.771051109,21.265405342999994],[-89.769655109,21.266002082],[-89.7688634,21.266200890000004],[-89.76806786,21.266329380000002],[-89.76713649,21.266527479999997],[-89.76621460000001,21.26664368],[-89.76532809,21.266685319999997],[-89.7641204,21.2669016],[-89.7629834,21.26718022],[-89.76098385,21.26755155],[-89.75930646,21.268030550000002],[-89.75673437,21.26829858],[-89.75596822,21.268437519999996],[-89.75415502,21.26887458],[-89.75336477,21.269016149999995],[-89.75187294,21.269468649999997],[-89.75090017,21.26968876999999],[-89.74931992,21.269976259999993],[-89.74726548,21.270445569999996],[-89.746304319,21.270566940000005],[-89.74449229,21.270893979999997],[-89.7426554,21.271166349999998],[-89.74269978,21.27136022],[-89.74172912,21.271636120000004],[-89.74079194,21.271828969999998],[-89.73987877,21.272116969999995],[-89.73813842,21.27254528],[-89.73734808,21.272906199999998],[-89.73632845,21.273167770000004],[-89.73537385000002,21.27344355],[-89.73425671,21.273647479999998],[-89.73318725,21.27382468],[-89.73213933900001,21.27394915],[-89.72893414900001,21.274452311],[-89.72795414,21.274676221000004],[-89.72491086,21.275243261],[-89.724876497,21.275285814999997],[-89.724500575,21.275377258999995],[-89.724488367,21.275333247999995],[-89.722949379,21.27566103],[-89.722637312,21.275778063999994],[-89.722593928,21.275866573],[-89.721794397,21.276020800000005],[-89.720370346,21.276405204],[-89.71991018,21.276493881],[-89.71917125,21.276671649999997],[-89.718148109,21.276971981],[-89.717500402,21.276952865],[-89.716775345,21.277066352999995],[-89.715980284,21.277277492999996],[-89.715489375,21.277356177999994],[-89.71330547300002,21.277792532],[-89.712654291,21.277881583999996],[-89.711911901,21.278084764999996],[-89.711912805,21.278316837999995],[-89.71196128,21.278640751],[-89.711925106,21.278676394],[-89.711787195,21.278699993],[-89.711691221,21.278381909999993],[-89.711295374,21.278387955000003],[-89.710457511,21.278483155],[-89.710099936,21.278555574],[-89.708894983,21.278700729999997],[-89.708302409,21.278804818999998],[-89.708223972,21.277585235]]]}},{"type":"Feature","id":"S02-310590005","properties":{"record_id":"S02-310590005","source_id":"S02","source_hash":"ceb1c24331a3e68e35524219fb966e456709875fa160f6558416d4e22a63debb","theme":"localities","status":"DERIVADO","origin":"OFICIAL","name":"Chuburná","date":"Marco 2025 · Censo 2020","cvegeo":"310590005","population_2020":"2874","clipped":false,"simplification_m":1,"relations":{"coast":55,"mangrove":2,"wetlands":1,"water":1}},"geometry":{"type":"Polygon","coordinates":[[[-89.776563318,21.258278893],[-89.778733139,21.257710659999997],[-89.77947974,21.25740635],[-89.780451599,21.25732592],[-89.780872649,21.257009311],[-89.781306959,21.257034449000002],[-89.782180208,21.256794268999997],[-89.782490193,21.256634080999998],[-89.782680819,21.256637624999996],[-89.783531268,21.256386195999994],[-89.78447042100001,21.256374535000003],[-89.784557972,21.256245388],[-89.784691566,21.256206229999997],[-89.784948853,21.256211244999996],[-89.785354484,21.256022121],[-89.786192092,21.256124246999995],[-89.78685539,21.255945324],[-89.788616228,21.255566028999997],[-89.788997762,21.255437799],[-89.789596202,21.255276058999996],[-89.789888716,21.255306428000004],[-89.790543329,21.255211809],[-89.790785343,21.255238295000005],[-89.791069474,21.255173986],[-89.791782761,21.255104677999995],[-89.792034524,21.255006057],[-89.792278424,21.255001742000005],[-89.792581424,21.255024582],[-89.792787862,21.255007425000002],[-89.79306913,21.254913803],[-89.793874502,21.254789439999996],[-89.794081742,21.254725069000003],[-89.794321167,21.254684445999995],[-89.794624966,21.254598827999992],[-89.795070367,21.254521329],[-89.795272951,21.254526323999997],[-89.795452027,21.254568819],[-89.795711569,21.254603812999996],[-89.796144823,21.254506319999997],[-89.796415095,21.254496318999998],[-89.797157434,21.254403825],[-89.797917604,21.254273476999998],[-89.798057821,21.254202735],[-89.799119939,21.254082424],[-89.79993428000002,21.253887861],[-89.800550884,21.253698227999998],[-89.800857104,21.253706474],[-89.8009931,21.253749641],[-89.801602079,21.253748105999996],[-89.802071894,21.253540627],[-89.802454565,21.253442504],[-89.802729384,21.253546734999993],[-89.803306227,21.253411969000002],[-89.804445852,21.253096011],[-89.804572427,21.252988140999992],[-89.805831399,21.252958909],[-89.805818626,21.252794038],[-89.805793269,21.252687808999998],[-89.807367791,21.252015557999993],[-89.807390666,21.252148469],[-89.809108511,21.251970461],[-89.809076413,21.251852852999995],[-89.8101102,21.251634696999993],[-89.810996642,21.251358536999994],[-89.811996,21.251248176],[-89.81313448,21.250838267],[-89.813159976,21.251008582],[-89.81385925300002,21.25086932],[-89.813872324,21.250267724999993],[-89.81409329,21.250213593999998],[-89.815033949,21.250045170999996],[-89.81509274,21.250170429],[-89.815586096,21.250108862999998],[-89.815805951,21.249973087999997],[-89.816076813,21.249965194999998],[-89.81630475700001,21.24991230599999],[-89.816401972,21.250250036000004],[-89.816959667,21.250104029],[-89.81697418900002,21.249981390999995],[-89.81763399000002,21.249868375],[-89.818888461,21.249615898999995],[-89.819160843,21.249519085],[-89.820480804,21.249444616999998],[-89.820875123,21.249110618999996],[-89.82112312,21.249009649],[-89.821885797,21.249216808999996],[-89.822288544,21.249343599],[-89.822372671,21.24933705999999],[-89.823131879,21.249135099000004],[-89.823429756,21.248897432],[-89.82352960000001,21.248845159999995],[-89.823614541,21.24885795999999],[-89.823715362,21.249078041999997],[-89.82384914,21.249246539],[-89.824052041,21.249194372],[-89.824236701,21.249119469999997],[-89.82425876,21.249150719999996],[-89.8243703,21.249022857],[-89.82453336100001,21.248957235],[-89.824624917,21.249123390999998],[-89.824780427,21.249089178],[-89.824919394,21.249019304],[-89.825080674,21.248856515999996],[-89.825122745,21.248843247],[-89.825189525,21.248889054],[-89.825239787,21.24916618799999],[-89.824346268,21.249363939],[-89.82449440100001,21.249997478],[-89.824602913,21.250541416999997],[-89.824747852,21.25050534],[-89.824991815,21.25047606],[-89.825303404,21.250526216999997],[-89.825515069,21.250615387],[-89.825746361,21.250785636999996],[-89.826028801,21.251072009000005],[-89.82616774,21.251155376999996],[-89.82643037,21.251223979999995],[-89.826451029,21.251412233],[-89.826506173,21.251499615],[-89.826677387,21.251690696999997],[-89.826834715,21.251833507999997],[-89.826881537,21.251919178],[-89.82695380000001,21.251975827],[-89.82730446,21.25237325999999],[-89.827403654,21.252902221],[-89.82725945,21.252885371],[-89.824222965,21.253241250000002],[-89.823617911,21.253729181],[-89.822495549,21.253718729999996],[-89.82129651900001,21.253993771],[-89.819637926,21.254331987000004],[-89.819648257,21.254389510999996],[-89.818679511,21.254502954],[-89.817565778,21.254577294],[-89.81583485100002,21.254904016],[-89.816047518,21.256249270000005],[-89.816094103,21.25624576],[-89.81615044,21.256644217999998],[-89.816010683,21.256654745999995],[-89.815946038,21.256262854],[-89.815984969,21.256258734],[-89.815777484,21.254914939999995],[-89.813828365,21.25518897999999],[-89.812990046,21.255270262999996],[-89.811959116,21.255432566999996],[-89.810817548,21.255586102],[-89.808706628,21.255842184],[-89.807029713,21.25622454899999],[-89.80535175800001,21.256517829000003],[-89.803993345,21.256842217],[-89.802821771,21.257066517999995],[-89.799737878,21.257854063999996],[-89.79814663,21.258244543000004],[-89.797667804,21.258345581999993],[-89.79768335300001,21.258425166999995],[-89.797489693,21.258457263999997],[-89.79730676,21.258394370999994],[-89.796525694,21.258531454999996],[-89.794987934,21.258858044],[-89.793409169,21.259265170999996],[-89.791610882,21.260056972],[-89.790854189,21.260619316],[-89.790875332,21.260756713999996],[-89.790440815,21.260871698],[-89.788804513,21.261242661000008],[-89.787164918,21.261563251999995],[-89.78398074700002,21.262049021],[-89.782247404,21.26233476399999],[-89.78066357,21.26266885],[-89.779081949,21.263027600999997],[-89.77727608,21.263235491],[-89.777249629,21.263184259999996],[-89.777179663,21.262693916999996],[-89.777094146,21.262292494999997],[-89.777045433,21.261839805],[-89.776878941,21.260669860999997],[-89.776754026,21.260171912999997],[-89.776563318,21.258278893]]]}}]}